NORAD_CAT_ID,OBJECT_NAME,OBJECT_TYPE,EPOCH,MEAN_MOTION,ECCENTRICITY,INCLINATION,RA_OF_ASC_NODE,ARG_OF_PERICENTER,MEAN_ANOMALY,BSTAR,MEAN_MOTION_DOT,MEAN_MOTION_DDOT,TLE_LINE0,TLE_LINE1,TLE_LINE2,SEMIMAJOR_AXIS,PERIOD,APOGEE,PERIGEE,DECAYED
52334.0,STARLINK-3880,PAYLOAD,2022-08-19 06:00:00,15.08897167,0.0001973,53.2164,278.0426,44.6397,194.9613,-0.0078093999999999,-0.00122661,0.0,0 STARLINK-3880,1 52334U 22045D   22231.25001157 -.00122661  00000-0 -78094-2 0  9991,2 52334  53.2164 278.0426 0001973  44.6397 194.9613 15.08897167 19603,6917.706,95.434,540.936,538.206,0.0
52334.0,STARLINK-3880,PAYLOAD,2022-08-19 14:00:01,15.08803554,0.0002133,53.2161,276.5524,34.2798,216.9289,0.0023114999999999,0.00036655,0.0,0 STARLINK-3880,1 52334U 22045D   22231.58334491  .00036655  00000-0  23115-2 0  9996,2 52334  53.2161 276.5524 0002133  34.2798 216.9289 15.08803554  1300,6917.9919999999975,95.44,541.332,538.381,0.0
52334.0,STARLINK-3880,PAYLOAD,2022-08-19 16:00:00,15.08819226,0.0002092,53.2159,276.1779,33.29,310.8065,0.00048509,7.436e-05,0.0,0 STARLINK-3880,1 52334U 22045D   22231.66667824  .00007436  00000-0  48509-3 0  9994,2 52334  53.2159 276.1779 0002092  33.2900 310.8065 15.08819226 19660,6917.944,95.439,541.256,538.362,0.0
52334.0,STARLINK-3880,PAYLOAD,2022-08-19 22:00:00,15.08807705,0.0001937,53.2164,275.0543,36.8744,225.905,0.0015203,0.00023969,0.0,0 STARLINK-3880,1 52334U 22045D   22231.91667824  .00023969  00000-0  15203-2 0  9995,2 52334  53.2164 275.0543 0001937  36.8744 225.9050 15.08807705  1306,6917.979,95.44,541.184,538.504,0.0
52334.0,STARLINK-3880,PAYLOAD,2022-08-20 14:00:01,15.08811441,0.0002169,53.2163,272.0633,34.4974,251.4332,0.0027949999999999,0.00044441,0.0,0 STARLINK-3880,1 52334U 22045D   22232.58334491  .00044441  00000-0  27950-2 0  9990,2 52334  53.2163 272.0633 0002169  34.4974 251.4332 15.08811441  1308,6917.968000000003,95.439,541.3330000000002,538.332,0.0
52334.0,STARLINK-3880,PAYLOAD,2022-08-20 22:00:00,15.08817022,0.0001972,53.2165,270.5652,38.2218,259.295,0.0019816,0.0003137,0.0,0 STARLINK-3880,1 52334U 22045D   22232.91667824  .00031370  00000-0  19816-2 0  9995,2 52334  53.2165 270.5652 0001972  38.2218 259.2950 15.08817022 19850,6917.951,95.439,541.18,538.451,0.0
52334.0,STARLINK-3880,PAYLOAD,2022-08-21 14:00:01,15.08824143,0.0002183,53.2161,267.5743,35.0692,285.622,0.0020964,0.0003322,0.0,0 STARLINK-3880,1 52334U 22045D   22233.58334491  .00033220  00000-0  20964-2 0  9992,2 52334  53.2161 267.5743 0002183  35.0692 285.6220 15.08824143 19955,6917.929,95.439,541.304,538.284,0.0
52334.0,STARLINK-3880,PAYLOAD,2022-08-21 22:00:00,15.08820594,0.0001973,53.2162,266.0763,39.6379,292.6523,0.0023234,0.00036863,0.0,0 STARLINK-3880,1 52334U 22045D   22233.91667824  .00036863  00000-0  23234-2 0  9997,2 52334  53.2162 266.0763 0001973  39.6379 292.6523 15.08820594  1300,6917.94,95.439,541.17,538.44,0.0
52334.0,STARLINK-3880,PAYLOAD,2022-08-22 06:00:00,15.08860439,0.0002063,53.2162,264.5808,39.6725,304.2018,-0.0018687999999999,-0.00029924,0.0,0 STARLINK-3880,1 52334U 22045D   22234.25001157 -.00029924  00000-0 -18688-2 0  9995,2 52334  53.2162 264.5808 0002063  39.6725 304.2018 15.08860439 20053,6917.818,95.436,541.11,538.256,0.0
52334.0,STARLINK-3880,PAYLOAD,2022-08-22 12:00:00,15.08824675,0.0002218,53.2159,263.4596,37.1983,225.388,0.0024168,0.0003836999999999,0.0,0 STARLINK-3880,1 52334U 22045D   22234.50001157  .00038370  00000-0  24168-2 0  9996,2 52334  53.2159 263.4596 0002218  37.1983 225.3880 15.08824675  1301,6917.927,95.439,541.327,538.258,0.0
52334.0,STARLINK-3880,PAYLOAD,2022-08-22 22:00:00,15.08823922,0.0001978,53.2155,261.5873,40.9618,326.1282,0.002589,0.00041139,0.0,0 STARLINK-3880,1 52334U 22045D   22234.91667824  .00041139  00000-0  25890-2 0  9990,2 52334  53.2155 261.5873 0001978  40.9618 326.1282 15.08823922 20168,6917.93,95.439,541.163,538.4259999999998,0.0
52334.0,STARLINK-3880,PAYLOAD,2022-08-23 14:00:01,15.08814253,0.0002154999999999,53.2148,258.5962,34.8824,355.3983,0.0010041,0.00015717,0.0,0 STARLINK-3880,1 52334U 22045D   22235.58334491  .00015717  00000-0  10041-2 0  9990,2 52334  53.2148 258.5962 0002155  34.8824 355.3983 15.08814253 20264,6917.959,95.439,541.315,538.3330000000002,0.0
52334.0,STARLINK-3880,PAYLOAD,2022-08-23 22:00:01,15.0879862,0.000196,53.2147,257.0981,39.9258,1.9981,0.0026875999999999,0.00042696,0.0,0 STARLINK-3880,1 52334U 22045D   22235.91668981  .00042696  00000-0  26876-2 0  9990,2 52334  53.2147 257.0981 0001960  39.9258   1.9981 15.08798620  1303,6918.007,95.44,541.2280000000002,538.516,0.0
52334.0,STARLINK-3880,PAYLOAD,2022-08-24 14:00:01,15.08820818,0.0002234,53.2143,254.1071,35.9737,29.0258,0.00060425,9.337e-05,0.0,0 STARLINK-3880,1 52334U 22045D   22236.58334491  .00009337  00000-0  60425-3 0  9994,2 52334  53.2143 254.1071 0002234  35.9737  29.0258 15.08820818  1303,6917.939,95.439,541.349,538.259,0.0
52334.0,STARLINK-3880,PAYLOAD,2022-08-24 16:00:00,15.0883916,0.0002195999999999,53.2143,253.7325,37.5174,120.3717,-0.0018141,-0.00029044,0.0,0 STARLINK-3880,1 52334U 22045D   22236.66667824 -.00029044  00000-0 -18141-2 0  9998,2 52334  53.2143 253.7325 0002196  37.5174 120.3717 15.08839160 20429,6917.8830000000025,95.438,541.2669999999998,538.229,0.0
52334.0,STARLINK-3880,PAYLOAD,2022-08-24 22:00:00,15.08802897,0.0002056,53.2143,252.609,40.7874,35.7974,0.0026677,0.00042381,0.0,0 STARLINK-3880,1 52334U 22045D   22236.91667824  .00042381  00000-0  26677-2 0  9996,2 52334  53.2143 252.6090 0002056  40.7874  35.7974 15.08802897  1301,6917.994000000002,95.44,541.281,538.436,0.0
52334.0,STARLINK-3880,PAYLOAD,2022-08-25 06:00:02,15.08841346,0.0002241,53.2143,251.1139,40.3695,47.8463,-0.0018834,-0.0003013999999999,0.0,0 STARLINK-3880,1 52334U 22045D   22237.25002315 -.00030140  00000-0 -18834-2 0  9990,2 52334  53.2143 251.1139 0002241  40.3695  47.8463 15.08841346 20515,6917.876,95.437,541.2919999999998,538.191,0.0
52334.0,STARLINK-3880,PAYLOAD,2022-08-25 14:00:01,15.08828845,0.0002343,53.2141,249.6178,37.1522,62.5807,0.00019584,2.829e-05,0.0,0 STARLINK-3880,1 52334U 22045D   22237.58334491  .00002829  00000-0  19584-3 0  9994,2 52334  53.2141 249.6178 0002343  37.1522  62.5807 15.08828845  1305,6917.9140000000025,95.438,541.4,538.159,0.0
52334.0,STARLINK-3880,PAYLOAD,2022-08-25 22:00:00,15.08809492,0.000218,53.2143,248.1196,41.7427,69.5814,0.0025364999999999,0.00040278,0.0,0 STARLINK-3880,1 52334U 22045D   22237.91667824  .00040278  00000-0  25365-2 0  9993,2 52334  53.2143 248.1196 0002180  41.7427  69.5814 15.08809492 20612,6917.974,95.439,541.347,538.331,0.0
52334.0,STARLINK-3880,PAYLOAD,2022-08-26 14:00:01,15.08839187,0.0002459,53.2144,245.1282,38.7414,95.8077,-0.00026924,-4.571e-05,0.0,0 STARLINK-3880,1 52334U 22045D   22238.58335648 -.00004571  00000-0 -26924-3 0  9994,2 52334  53.2144 245.1282 0002459  38.7414  95.8077 15.08839187 20715,6917.8830000000025,95.438,541.4490000000002,538.047,0.0
52334.0,STARLINK-3880,PAYLOAD,2022-08-26 22:00:00,15.08819178,0.0002298,53.2147,243.6302,43.1907,102.8953,0.0023965999999999,0.00038039,0.0,0 STARLINK-3880,1 52334U 22045D   22238.91667824  .00038039  00000-0  23966-2 0  9991,2 52334  53.2147 243.6302 0002298  43.1907 102.8953 15.08819178  1306,6917.944,95.439,541.399,538.219,0.0
52334.0,STARLINK-3880,PAYLOAD,2022-08-27 14:00:01,15.08851844,0.0002543,53.2148,240.6386,40.6108,128.6561,-0.00079475,-0.00012919,0.0,0 STARLINK-3880,1 52334U 22045D   22239.58334491 -.00012919  00000-0 -79475-3 0  9994,2 52334  53.2148 240.6386 0002543  40.6108 128.6561 15.08851844  1301,6917.844,95.437,541.4680000000002,537.95,0.0
52334.0,STARLINK-3880,PAYLOAD,2022-08-27 22:00:00,15.08829592,0.0002379999999999,53.2152,239.1406,45.1002,135.7762,0.0022395,0.00035524,0.0,0 STARLINK-3880,1 52334U 22045D   22239.91667824  .00035524  00000-0  22395-2 0  9993,2 52334  53.2152 239.1406 0002380  45.1002 135.7762 15.08829592 20919,6917.9119999999975,95.438,541.424,538.131,0.0
52334.0,STARLINK-3880,PAYLOAD,2022-08-28 14:00:01,15.08866116,0.0002575,53.2153,236.149,42.5564,161.5256,-0.0012952999999999,-0.0002085999999999,0.0,0 STARLINK-3880,1 52334U 22045D   22240.58334491 -.00020860  00000-0 -12953-2 0  9997,2 52334  53.2153 236.1490 0002575  42.5564 161.5256 15.08866116 21010,6917.801,95.436,541.447,537.884,0.0
52334.0,STARLINK-3880,PAYLOAD,2022-08-28 22:00:00,15.08847985,0.0002392,53.2156,234.6511,46.7378,168.9635,0.00091789,0.00014354,0.0,0 STARLINK-3880,1 52334U 22045D   22240.91667824  .00014354  00000-0  91789-3 0  9997,2 52334  53.2156 234.6511 0002392  46.7378 168.9635 15.08847985  1301,6917.856,95.437,541.376,538.066,0.0
52334.0,STARLINK-3880,PAYLOAD,2022-08-29 14:00:01,15.08849271,0.00025,53.2155,231.6595,42.5162,196.3861,-0.0018237,-0.00029204,0.0,0 STARLINK-3880,1 52334U 22045D   22241.58334491 -.00029204  00000-0 -18237-2 0  9990,2 52334  53.2155 231.6595 0002500  42.5162 196.3861 15.08849271  1301,6917.852,95.437,541.447,537.988,0.0
52334.0,STARLINK-3880,PAYLOAD,2022-08-29 16:00:00,15.08847987,0.0002448,53.2156,231.2849,43.6902,288.1107,-0.0020402999999999,-0.00032622,0.0,0 STARLINK-3880,1 52334U 22045D   22241.66667824 -.00032622  00000-0 -20403-2 0  9994,2 52334  53.2156 231.2849 0002448  43.6902 288.1107 15.08847987 21177,6917.856,95.437,541.414,538.0269999999998,0.0
52334.0,STARLINK-3880,PAYLOAD,2022-08-29 22:00:00,15.08822504,0.0002355999999999,53.2157,230.1618,47.3247,203.1735,0.0020258,0.00032085,0.0,0 STARLINK-3880,1 52334U 22045D   22241.91667824  .00032085  00000-0  20258-2 0  9991,2 52334  53.2157 230.1618 0002356  47.3247 203.1735 15.08822504  1306,6917.934,95.439,541.429,538.169,0.0
52334.0,STARLINK-3880,PAYLOAD,2022-08-30 06:00:00,15.08841526,0.0002546,53.2157,228.6672,44.8223,217.2688,-0.00048824,-8.051e-05,0.0,0 STARLINK-3880,1 52334U 22045D   22242.25001157 -.00008051  00000-0 -48824-3 0  9998,2 52334  53.2157 228.6672 0002546  44.8223 217.2688 15.08841526 21260,6917.876,95.437,541.502,537.979,0.0
